*******************************************************************************
JPL/HORIZONS                55 Pandora (A858 RB)           2020-Jun-20 08:02:32
Rec #:      55 (+COV) Soln.date: 2020-May-20_00:57:14   # obs: 2664 (1913-2020)
 
IAU76/J2000 helio. ecliptic osc. elements (au, days, deg., period=Julian yrs):
 
  EPOCH=  2454641.5 ! 2008-Jun-24.00 (TDB)         Residual RMS= .2089
   EC= .1448111489287176   QR= 2.3588496299837     TP= 2455238.2390160942
   OM= 10.53073165168096   W=  4.069933532228041   IN= 7.184932500920119
   A= 2.758279211695527    MA= 231.6100090195559   ADIST= 3.157708793407354
   PER= 4.58106            N= .215152661           ANGMOM= .028268222
   DAN= 2.3596             DDN= 3.15636            L= 14.5688127
   B= .5086148             MOID= 1.3592            TP= 2010-Feb-10.7390160942
 
Asteroid physical parameters (km, seconds, rotational period in hours):
   GM= n.a.                RAD= 42.397             ROTPER= 4.804
   H= 7.7                  G= .150                 B-V= .704
                           ALBEDO= .204            STYP= X
 
ASTEROID comments: 
1: soln ref.= JPL#73, OCC=0
2: source=ORB
*******************************************************************************
 
 
*******************************************************************************
Ephemeris / WWW_USER Sat Jun 20 08:02:32 2020 Pasadena, USA      / Horizons
*******************************************************************************
Target body name: 55 Pandora (A858 RB)            {source: JPL#73}
Center body name: Solar System Barycenter (0)     {source: DE431}
Center-site name: BODY CENTER
*******************************************************************************
Start time      : A.D. 1969-Jun-28 00:00:00.0000 TDB
Stop  time      : A.D. 2071-May-04 00:00:00.0000 TDB
Step-size       : 7200 minutes
*******************************************************************************
Center geodetic : 0.00000000,0.00000000,0.0000000 {E-lon(deg),Lat(deg),Alt(km)}
Center cylindric: 0.00000000,0.00000000,0.0000000 {E-lon(deg),Dxy(km),Dz(km)}
Center radii    : (undefined)                                                  
Small perturbers: Yes                             {source: SB431-N16}
Output units    : AU-D
Output type     : GEOMETRIC cartesian states
Output format   : 2 (position and velocity)
Reference frame : Ecliptic of J2000.0
*******************************************************************************
Initial IAU76/J2000 heliocentric ecliptic osculating elements (au, days, deg.):
  EPOCH=  2454641.5 ! 2008-Jun-24.00 (TDB)         Residual RMS= .2089         
   EC= .1448111489287176   QR= 2.3588496299837     TP= 2455238.2390160942      
   OM= 10.53073165168096   W=  4.069933532228041   IN= 7.184932500920119       
  Equivalent ICRF heliocentric equatorial cartesian coordinates (au, au/d):
   X=-1.762459541372840E+00  Y=-2.151520053324241E+00  Z=-1.220795312644867E+00
  VX= 8.142184091353949E-03 VY=-3.875933528232670E-03 VZ=-2.499578318306763E-03
Asteroid physical parameters (km, seconds, rotational period in hours):        
   GM= n.a.                RAD= 42.397             ROTPER= 4.804               
   H= 7.7                  G= .150                 B-V= .704                   
                           ALBEDO= .204            STYP= X                     
*******************************************************************************
            JDTDB,            Calendar Date (TDB),        delta-T,                      X,                      Y,                      Z,                     VX,                     VY,                     VZ,
******************************************************************************************************************************************************************************************************************
$$SOE
2465600.500000000, A.D. 2038-Jun-26 00:00:00.0000,      69.184256, -3.315791684636578E-01,  2.604833155127861E+00,  3.305744277756451E-01, -1.075508855674409E-02,  7.986189713020860E-05,  2.455101400289217E-04,
2465605.500000000, A.D. 2038-Jul-01 00:00:00.0000,      69.184120, -3.852849716968003E-01,  2.604716954268330E+00,  3.317365635007681E-01, -1.072656615070730E-02, -1.260553845778218E-04,  2.193649390597600E-04,
2465610.500000000, A.D. 2038-Jul-06 00:00:00.0000,      69.183984, -4.388382305448275E-01,  2.603575524580791E+00,  3.327682932928626E-01, -1.069408409794500E-02, -3.302187955124187E-04,  1.933494008406114E-04,
2465615.500000000, A.D. 2038-Jul-11 00:00:00.0000,      69.183846, -4.922193463939938E-01,  2.601417795304535E+00,  3.336702896471037E-01, -1.065772228079431E-02, -5.325649176428883E-04,  1.674731323792444E-04,
2465620.500000000, A.D. 2038-Jul-16 00:00:00.0000,      69.183708, -5.454091204633650E-01,  2.598253004789014E+00,  3.344432721159543E-01, -1.061756073133121E-02, -7.330335124338328E-04,  1.417453507348904E-04,
2465625.500000000, A.D. 2038-Jul-21 00:00:00.0000,      69.183572, -5.983887542782083E-01,  2.594090684785903E+00,  3.350880053770653E-01, -1.057367952231648E-02, -9.315674446395915E-04,  1.161748901476776E-04,
2465630.500000000, A.D. 2038-Jul-26 00:00:00.0000,      69.183441, -6.511398496139653E-01,  2.588940645127716E+00,  3.356052973378809E-01, -1.052615866444936E-02, -1.128112603952335E-03,  9.077020958319521E-05,
2465635.500000000, A.D. 2038-Jul-31 00:00:00.0000,      69.183314, -7.036444079418182E-01,  2.582812958802764E+00,  3.359959972788708E-01, -1.047507800971242E-02, -1.322617824883088E-03,  6.553940062836139E-05,
2465640.500000000, A.D. 2038-Aug-05 00:00:00.0000,      69.183193, -7.558848294057021E-01,  2.575717947434258E+00,  3.362609940369722E-01, -1.042051716056398E-02, -1.515034805292441E-03,  4.049019566291451E-05,
2465645.500000000, A.D. 2038-Aug-10 00:00:00.0000,      69.183077, -8.078439113593900E-01,  2.567666167169181E+00,  3.364012142303937E-01, -1.036255538473676E-02, -1.705318024038847E-03,  1.562997622098344E-05,
2465650.500000000, A.D. 2038-Aug-15 00:00:00.0000,      69.182965, -8.595048464911861E-01,  2.558668394980073E+00,  3.364176205255300E-01, -1.030127153546059E-02, -1.893424658249260E-03, -9.034218541018722E-06,
2465655.500000000, A.D. 2038-Aug-20 00:00:00.0000,      69.182861, -9.108512205631388E-01,  2.548735615380391E+00,  3.363112099463481E-01, -1.023674397705261E-02, -2.079314500682857E-03, -3.349568332835354E-05,
2465660.500000000, A.D. 2038-Aug-25 00:00:00.0000,      69.182766, -9.618670097918194E-01,  2.537879007552172E+00,  3.360830122264531E-01, -1.016905051598215E-02, -2.262949877473217E-03, -5.774803814692051E-05,
2465665.500000000, A.D. 2038-Aug-30 00:00:00.0000,      69.182682, -1.012536577898493E+00,  2.526109932884154E+00,  3.357340882042009E-01, -1.009826833758026E-02, -2.444295566142848E-03, -8.178521963224259E-05,
2465670.500000000, A.D. 2038-Sep-04 00:00:00.0000,      69.182607, -1.062844672856654E+00,  2.513439922919954E+00,  3.352655282615822E-01, -1.002447394817149E-02, -2.623318713531715E-03, -1.056014722084652E-04,
2465675.500000000, A.D. 2038-Sep-09 00:00:00.0000,      69.182541, -1.112776423362039E+00,  2.499880667716254E+00,  3.346784508075956E-01, -9.947743121804077E-03, -2.799988754040791E-03, -1.291913391619759E-04,
2465680.500000000, A.D. 2038-Sep-14 00:00:00.0000,      69.182484, -1.162317335047266E+00,  2.485444004606611E+00,  3.339740008062349E-01, -9.868150851474099E-03, -2.974277329232600E-03, -1.525496537149153E-04,
2465685.500000000, A.D. 2038-Sep-19 00:00:00.0000,      69.182438, -1.211453286465475E+00,  2.470141907364669E+00,  3.331533483493850E-01, -9.785771305564279E-03, -3.146158208239606E-03, -1.756715299590918E-04,
2465690.500000000, A.D. 2038-Sep-24 00:00:00.0000,      69.182405, -1.260170524868412E+00,  2.453986475765598E+00,  3.322176872755203E-01, -9.700677788988060E-03, -3.315607208026812E-03, -1.985523536241403E-04,
2465695.500000000, A.D. 2038-Sep-29 00:00:00.0000,      69.182385, -1.308455661799754E+00,  2.436989925545708E+00,  3.311682338346056E-01, -9.612942708023762E-03, -3.482602114033273E-03, -2.211877728555646E-04,
2465700.500000000, A.D. 2038-Oct-04 00:00:00.0000,      69.182377, -1.356295668521065E+00,  2.419164578756049E+00,  3.300062253988184E-01, -9.522637538535664E-03, -3.647122602020666E-03, -2.435736891201122E-04,
2465705.500000000, A.D. 2038-Oct-09 00:00:00.0000,      69.182379, -1.403677871287363E+00,  2.400522854502990E+00,  3.287329192183596E-01, -9.429832797592264E-03, -3.809150161467474E-03, -2.657062482641421E-04,
2465710.500000000, A.D. 2038-Oct-14 00:00:00.0000,      69.182393, -1.450589946489193E+00,  2.381077260067756E+00,  3.273495912215895E-01, -9.334598018439786E-03, -3.968668020593560E-03, -2.875818317252014E-04,
2465715.500000000, A.D. 2038-Oct-19 00:00:00.0000,      69.182418, -1.497019915677736E+00,  2.360840382396705E+00,  3.258575348587270E-01, -9.237001728717669E-03, -4.125661073049021E-03, -3.091970478965113E-04,
2465720.500000000, A.D. 2038-Oct-24 00:00:00.0000,      69.182457, -1.542956140488794E+00,  2.339824879953929E+00,  3.242580599883346E-01, -9.137111431770800E-03, -4.280115806297280E-03, -3.305487236460619E-04,
2465725.500000000, A.D. 2038-Oct-29 00:00:00.0000,      69.182509, -1.588387317480755E+00,  2.318043474927639E+00,  3.225524918058235E-01, -9.034993590899728E-03, -4.432020231720520E-03, -3.516338959935205E-04,
2465730.500000000, A.D. 2038-Nov-03 00:00:00.0000,      69.182571, -1.633302472900811E+00,  2.295508945781682E+00,  3.207421698131616E-01, -8.930713616384513E-03, -4.581363816474354E-03, -3.724498039495104E-04,
2465735.500000000, A.D. 2038-Nov-08 00:00:00.0000,      69.182643, -1.677690957392879E+00,  2.272234120143332E+00,  3.188284468289747E-01, -8.824335855116433E-03, -4.728137417119756E-03, -3.929938805228350E-04,
